{
  "type": "FeatureCollection",
  "features": [
    {
      "type": "Feature",
      "properties": {
        "norad_id": 43564,
        "name": "GSAT0221 (GALILEO 25)",
        "group": "galileo",
        "lat": -33.82972879629645,
        "lon": -167.88669865722656,
        "alt_km": 23217.539065557557,
        "timestamp": "2025-12-22T20:43:46.111835+00:00",
        "meta_object_name": "GSAT0221 (GALILEO 25)",
        "meta_object_id": "2018-060A",
        "meta_epoch": "2025-12-19T13:40:28.820064",
        "meta_mean_motion": 1.70475889,
        "meta_eccentricity": 0.0006721,
        "meta_inclination": 57.2264,
        "meta_ra_of_asc_node": 346.6332,
        "meta_arg_of_pericenter": 285.6827,
        "meta_mean_anomaly": 74.2548,
        "meta_ephemeris_type": 0,
        "meta_classification_type": "U",
        "meta_norad_cat_id": 43564,
        "meta_element_set_no": 999,
        "meta_rev_at_epoch": 4610,
        "meta_bstar": 0,
        "meta_mean_motion_dot": -7.2e-07,
        "meta_mean_motion_ddot": 0,
        "tle_line1": "1 43564U 18060A   25353.56977801 -.00000072  00000+0  00000+0 0  9996",
        "tle_line2": "2 43564  57.2264 346.6332 0006721 285.6827  74.2548  1.70475889 46101"
      },
      "geometry": {
        "type": "Point",
        "coordinates": [
          -167.88669865722656,
          -33.82972879629645
        ]
      }
    },
    {
      "type": "Feature",
      "properties": {
        "norad_id": 43565,
        "name": "GSAT0222 (GALILEO 26)",
        "group": "galileo",
        "lat": 57.08161541185895,
        "lon": 70.83092966097945,
        "alt_km": 23233.469347552254,
        "timestamp": "2025-12-22T20:43:46.111846+00:00",
        "meta_object_name": "GSAT0222 (GALILEO 26)",
        "meta_object_id": "2018-060B",
        "meta_epoch": "2025-12-22T03:15:04.306464",
        "meta_mean_motion": 1.70475514,
        "meta_eccentricity": 0.000605,
        "meta_inclination": 57.229,
        "meta_ra_of_asc_node": 346.567,
        "meta_arg_of_pericenter": 266.9186,
        "meta_mean_anomaly": 93.0201,
        "meta_ephemeris_type": 0,
        "meta_classification_type": "U",
        "meta_norad_cat_id": 43565,
        "meta_element_set_no": 999,
        "meta_rev_at_epoch": 4619,
        "meta_bstar": 0,
        "meta_mean_motion_dot": -6.5e-07,
        "meta_mean_motion_ddot": 0,
        "tle_line1": "1 43565U 18060B   25356.13546651 -.00000065  00000+0  00000+0 0  9990",
        "tle_line2": "2 43565  57.2290 346.5670 0006050 266.9186  93.0201  1.70475514 46199"
      },
      "geometry": {
        "type": "Point",
        "coordinates": [
          70.83092966097945,
          57.08161541185895
        ]
      }
    },
    {
      "type": "Feature",
      "properties": {
        "norad_id": 43566,
        "name": "GSAT0219 (GALILEO 23)",
        "group": "galileo",
        "lat": -39.23171785243869,
        "lon": -45.19748703455353,
        "alt_km": 23210.502026216294,
        "timestamp": "2025-12-22T20:43:46.111857+00:00",
        "meta_object_name": "GSAT0219 (GALILEO 23)",
        "meta_object_id": "2018-060C",
        "meta_epoch": "2025-12-18T20:05:25.027008",
        "meta_mean_motion": 1.70475846,
        "meta_eccentricity": 0.00058667,
        "meta_inclination": 57.2292,
        "meta_ra_of_asc_node": 346.6575,
        "meta_arg_of_pericenter": 289.8664,
        "meta_mean_anomaly": 70.0835,
        "meta_ephemeris_type": 0,
        "meta_classification_type": "U",
        "meta_norad_cat_id": 43566,
        "meta_element_set_no": 999,
        "meta_rev_at_epoch": 4611,
        "meta_bstar": 0,
        "meta_mean_motion_dot": -7.4e-07,
        "meta_mean_motion_ddot": 0,
        "tle_line1": "1 43566U 18060C   25352.83709522 -.00000074  00000+0  00000+0 0  9992",
        "tle_line2": "2 43566  57.2292 346.6575 0005866 289.8664  70.0835  1.70475846 46114"
      },
      "geometry": {
        "type": "Point",
        "coordinates": [
          -45.19748703455353,
          -39.23171785243869
        ]
      }
    },
    {
      "type": "Feature",
      "properties": {
        "norad_id": 43567,
        "name": "GSAT0220 (GALILEO 24)",
        "group": "galileo",
        "lat": 3.723137304324509,
        "lon": 164.13495528630895,
        "alt_km": 23228.76141504862,
        "timestamp": "2025-12-22T20:43:46.111868+00:00",
        "meta_object_name": "GSAT0220 (GALILEO 24)",
        "meta_object_id": "2018-060D",
        "meta_epoch": "2025-12-19T15:28:13.770912",
        "meta_mean_motion": 1.70475932,
        "meta_eccentricity": 0.000607,
        "meta_inclination": 57.2288,
        "meta_ra_of_asc_node": 346.6359,
        "meta_arg_of_pericenter": 288.3471,
        "meta_mean_anomaly": 71.5983,
        "meta_ephemeris_type": 0,
        "meta_classification_type": "U",
        "meta_norad_cat_id": 43567,
        "meta_element_set_no": 999,
        "meta_rev_at_epoch": 4611,
        "meta_bstar": 0,
        "meta_mean_motion_dot": -7.2e-07,
        "meta_mean_motion_ddot": 0,
        "tle_line1": "1 43567U 18060D   25353.64460383 -.00000072  00000+0  00000+0 0  9990",
        "tle_line2": "2 43567  57.2288 346.6359 0006070 288.3471  71.5983  1.70475932 46114"
      },
      "geometry": {
        "type": "Point",
        "coordinates": [
          164.13495528630895,
          3.723137304324509
        ]
      }
    },
    {
      "type": "Feature",
      "properties": {
        "norad_id": 49809,
        "name": "GSAT0223 (GALILEO 27)",
        "group": "galileo",
        "lat": -57.02229435139993,
        "lon": -110.24129150492412,
        "alt_km": 23215.169558470145,
        "timestamp": "2025-12-22T20:43:46.111879+00:00",
        "meta_object_name": "GSAT0223 (GALILEO 27)",
        "meta_object_id": "2021-116A",
        "meta_epoch": "2025-12-22T10:14:17.439072",
        "meta_mean_motion": 1.70475902,
        "meta_eccentricity": 0.0004415,
        "meta_inclination": 57.2173,
        "meta_ra_of_asc_node": 346.4518,
        "meta_arg_of_pericenter": 255.5164,
        "meta_mean_anomaly": 102.5504,
        "meta_ephemeris_type": 0,
        "meta_classification_type": "U",
        "meta_norad_cat_id": 49809,
        "meta_element_set_no": 999,
        "meta_rev_at_epoch": 2516,
        "meta_bstar": 0,
        "meta_mean_motion_dot": -6.5e-07,
        "meta_mean_motion_ddot": 0,
        "tle_line1": "1 49809U 21116A   25356.42659073 -.00000065  00000+0  00000+0 0  9998",
        "tle_line2": "2 49809  57.2173 346.4518 0004415 255.5164 102.5504  1.70475902 25166"
      },
      "geometry": {
        "type": "Point",
        "coordinates": [
          -110.24129150492412,
          -57.02229435139993
        ]
      }
    },
    {
      "type": "Feature",
      "properties": {
        "norad_id": 49810,
        "name": "GSAT0224 (GALILEO 28)",
        "group": "galileo",
        "lat": 15.86136491426236,
        "lon": -3.022565306104885,
        "alt_km": 23225.564164211755,
        "timestamp": "2025-12-22T20:43:46.111890+00:00",
        "meta_object_name": "GSAT0224 (GALILEO 28)",
        "meta_object_id": "2021-116B",
        "meta_epoch": "2025-12-20T04:43:34.979232",
        "meta_mean_motion": 1.70476091,
        "meta_eccentricity": 0.0003747,
        "meta_inclination": 57.2188,
        "meta_ra_of_asc_node": 346.5104,
        "meta_arg_of_pericenter": 259.7047,
        "meta_mean_anomaly": 282.5653,
        "meta_ephemeris_type": 0,
        "meta_classification_type": "U",
        "meta_norad_cat_id": 49810,
        "meta_element_set_no": 999,
        "meta_rev_at_epoch": 2515,
        "meta_bstar": 0,
        "meta_mean_motion_dot": -7e-07,
        "meta_mean_motion_ddot": 0,
        "tle_line1": "1 49810U 21116B   25354.19693263 -.00000070  00000+0  00000+0 0  9997",
        "tle_line2": "2 49810  57.2188 346.5104 0003747 259.7047 282.5653  1.70476091 25152"
      },
      "geometry": {
        "type": "Point",
        "coordinates": [
          -3.022565306104885,
          15.86136491426236
        ]
      }
    },
    {
      "type": "Feature",
      "properties": {
        "norad_id": 59598,
        "name": "GSAT0225 (GALILEO 29)",
        "group": "galileo",
        "lat": 9.388803022817198,
        "lon": 112.65230005833016,
        "alt_km": 23227.66069401242,
        "timestamp": "2025-12-22T20:43:46.111901+00:00",
        "meta_object_name": "GSAT0225 (GALILEO 29)",
        "meta_object_id": "2024-079A",
        "meta_epoch": "2025-12-22T06:14:03.688224",
        "meta_mean_motion": 1.70474978,
        "meta_eccentricity": 0.00022203,
        "meta_inclination": 55.0066,
        "meta_ra_of_asc_node": 106.0297,
        "meta_arg_of_pericenter": 187.8094,
        "meta_mean_anomaly": 172.9873,
        "meta_ephemeris_type": 0,
        "meta_classification_type": "U",
        "meta_norad_cat_id": 59598,
        "meta_element_set_no": 999,
        "meta_rev_at_epoch": 1030,
        "meta_bstar": 0,
        "meta_mean_motion_dot": 6e-08,
        "meta_mean_motion_ddot": 0,
        "tle_line1": "1 59598U 24079A   25356.25976491  .00000006  00000+0  00000+0 0  9996",
        "tle_line2": "2 59598  55.0066 106.0297 0002220 187.8094 172.9873  1.70474978 10306"
      },
      "geometry": {
        "type": "Point",
        "coordinates": [
          112.65230005833016,
          9.388803022817198
        ]
      }
    }
  ]
}